[{"OBJECT_NAME":"SL-8 R/B","OBJECT_ID":"1979-089B","EPOCH":"2026-03-13T10:07:02.086752","MEAN_MOTION":14.42353288,"ECCENTRICITY":0.00171143,"INCLINATION":74.0667,"RA_OF_ASC_NODE":84.1345,"ARG_OF_PERICENTER":256.4414,"MEAN_ANOMALY":103.4836,"EPHEMERIS_TYPE":0,"CLASSIFICATION_TYPE":"U","NORAD_CAT_ID":11574,"ELEMENT_SET_NO":999,"REV_AT_EPOCH":43664,"BSTAR":0.00010292592,"MEAN_MOTION_DOT":3.14e-6,"MEAN_MOTION_DDOT":0},{"OBJECT_NAME":"SL-14 R/B","OBJECT_ID":"1980-005B","EPOCH":"2026-03-13T21:19:46.142400","MEAN_MOTION":14.90935557,"ECCENTRICITY":0.00165221,"INCLINATION":82.5137,"RA_OF_ASC_NODE":303.2531,"ARG_OF_PERICENTER":144.8431,"MEAN_ANOMALY":215.3882,"EPHEMERIS_TYPE":0,"CLASSIFICATION_TYPE":"U","NORAD_CAT_ID":11672,"ELEMENT_SET_NO":999,"REV_AT_EPOCH":47711,"BSTAR":5.959948e-5,"MEAN_MOTION_DOT":6.15e-6,"MEAN_MOTION_DDOT":0},{"OBJECT_NAME":"SL-8 R/B","OBJECT_ID":"1981-003B","EPOCH":"2026-03-13T23:22:44.851008","MEAN_MOTION":15.11151671,"ECCENTRICITY":0.02617374,"INCLINATION":82.9384,"RA_OF_ASC_NODE":286.0622,"ARG_OF_PERICENTER":163.7107,"MEAN_ANOMALY":197.2747,"EPHEMERIS_TYPE":0,"CLASSIFICATION_TYPE":"U","NORAD_CAT_ID":12139,"ELEMENT_SET_NO":999,"REV_AT_EPOCH":31532,"BSTAR":0.00057125469,"MEAN_MOTION_DOT":0.00022366,"MEAN_MOTION_DDOT":0},{"OBJECT_NAME":"SL-3 R/B","OBJECT_ID":"1981-046B","EPOCH":"2026-03-13T22:29:48.281568","MEAN_MOTION":15.42110535,"ECCENTRICITY":0.00192128,"INCLINATION":81.2296,"RA_OF_ASC_NODE":284.6429,"ARG_OF_PERICENTER":7.6746,"MEAN_ANOMALY":352.4787,"EPHEMERIS_TYPE":0,"CLASSIFICATION_TYPE":"U","NORAD_CAT_ID":12465,"ELEMENT_SET_NO":999,"REV_AT_EPOCH":43908,"BSTAR":0.00032907636,"MEAN_MOTION_DOT":0.00014207,"MEAN_MOTION_DDOT":0},{"OBJECT_NAME":"SL-3 R/B","OBJECT_ID":"1981-103B","EPOCH":"2026-03-13T21:58:40.873440","MEAN_MOTION":15.21433923,"ECCENTRICITY":0.00123584,"INCLINATION":81.1588,"RA_OF_ASC_NODE":208.4744,"ARG_OF_PERICENTER":271.5104,"MEAN_ANOMALY":88.4712,"EPHEMERIS_TYPE":0,"CLASSIFICATION_TYPE":"U","NORAD_CAT_ID":12904,"ELEMENT_SET_NO":999,"REV_AT_EPOCH":97387,"BSTAR":0.00031777506,"MEAN_MOTION_DOT":7.174e-5,"MEAN_MOTION_DDOT":0},{"OBJECT_NAME":"SL-3 R/B","OBJECT_ID":"1982-013B","EPOCH":"2026-03-13T22:07:46.824672","MEAN_MOTION":15.22060968,"ECCENTRICITY":0.0022855,"INCLINATION":81.1758,"RA_OF_ASC_NODE":155.8105,"ARG_OF_PERICENTER":163.1775,"MEAN_ANOMALY":197.0221,"EPHEMERIS_TYPE":0,"CLASSIFICATION_TYPE":"U","NORAD_CAT_ID":13068,"ELEMENT_SET_NO":999,"REV_AT_EPOCH":40499,"BSTAR":0.0002077637,"MEAN_MOTION_DOT":4.811e-5,"MEAN_MOTION_DDOT":0},{"OBJECT_NAME":"SL-3 R/B","OBJECT_ID":"1982-039B","EPOCH":"2026-03-13T21:32:26.512512","MEAN_MOTION":15.10108606,"ECCENTRICITY":0.00295405,"INCLINATION":81.1576,"RA_OF_ASC_NODE":211.1107,"ARG_OF_PERICENTER":310.7122,"MEAN_ANOMALY":49.1537,"EPHEMERIS_TYPE":0,"CLASSIFICATION_TYPE":"U","NORAD_CAT_ID":13154,"ELEMENT_SET_NO":999,"REV_AT_EPOCH":38227,"BSTAR":0.00018930284,"MEAN_MOTION_DOT":3.138e-5,"MEAN_MOTION_DDOT":0},{"OBJECT_NAME":"SL-3 R/B","OBJECT_ID":"1982-079B","EPOCH":"2026-03-13T22:22:29.389440","MEAN_MOTION":15.24867789,"ECCENTRICITY":0.00252373,"INCLINATION":81.1479,"RA_OF_ASC_NODE":188.068,"ARG_OF_PERICENTER":150.5542,"MEAN_ANOMALY":209.7119,"EPHEMERIS_TYPE":0,"CLASSIFICATION_TYPE":"U","NORAD_CAT_ID":13403,"ELEMENT_SET_NO":999,"REV_AT_EPOCH":37834,"BSTAR":0.00032446296,"MEAN_MOTION_DOT":8.164e-5,"MEAN_MOTION_DDOT":0},{"OBJECT_NAME":"SL-14 R/B","OBJECT_ID":"1982-092B","EPOCH":"2026-03-13T15:11:42.843264","MEAN_MOTION":14.86670719,"ECCENTRICITY":0.00188393,"INCLINATION":82.5689,"RA_OF_ASC_NODE":137.7115,"ARG_OF_PERICENTER":289.4979,"MEAN_ANOMALY":230.7637,"EPHEMERIS_TYPE":0,"CLASSIFICATION_TYPE":"U","NORAD_CAT_ID":13553,"ELEMENT_SET_NO":999,"REV_AT_EPOCH":32951,"BSTAR":5.6604254e-5,"MEAN_MOTION_DOT":5.28e-6,"MEAN_MOTION_DDOT":0},{"OBJECT_NAME":"SL-3 R/B","OBJECT_ID":"1983-010B","EPOCH":"2026-03-13T06:07:19.512480","MEAN_MOTION":15.46493922,"ECCENTRICITY":0.0017762,"INCLINATION":81.1059,"RA_OF_ASC_NODE":357.8766,"ARG_OF_PERICENTER":39.4433,"MEAN_ANOMALY":320.8101,"EPHEMERIS_TYPE":0,"CLASSIFICATION_TYPE":"U","NORAD_CAT_ID":13819,"ELEMENT_SET_NO":999,"REV_AT_EPOCH":35849,"BSTAR":0.00034825319,"MEAN_MOTION_DOT":0.00017425,"MEAN_MOTION_DDOT":0},{"OBJECT_NAME":"SL-3 R/B","OBJECT_ID":"1983-075B","EPOCH":"2026-03-13T23:30:58.793760","MEAN_MOTION":15.38528561,"ECCENTRICITY":0.00205331,"INCLINATION":97.6143,"RA_OF_ASC_NODE":77.7198,"ARG_OF_PERICENTER":209.6151,"MEAN_ANOMALY":150.3932,"EPHEMERIS_TYPE":0,"CLASSIFICATION_TYPE":"U","NORAD_CAT_ID":14208,"ELEMENT_SET_NO":999,"REV_AT_EPOCH":33081,"BSTAR":0.00031974448,"MEAN_MOTION_DOT":0.00012162,"MEAN_MOTION_DDOT":0},{"OBJECT_NAME":"COSMOS 1536","OBJECT_ID":"1984-013A","EPOCH":"2026-03-13T18:59:15.588960","MEAN_MOTION":15.23883436,"ECCENTRICITY":0.00124678,"INCLINATION":82.5428,"RA_OF_ASC_NODE":103.7728,"ARG_OF_PERICENTER":267.2106,"MEAN_ANOMALY":92.7704,"EPHEMERIS_TYPE":0,"CLASSIFICATION_TYPE":"U","NORAD_CAT_ID":14699,"ELEMENT_SET_NO":999,"REV_AT_EPOCH":27324,"BSTAR":0.00029296683,"MEAN_MOTION_DOT":7.116e-5,"MEAN_MOTION_DDOT":0},{"OBJECT_NAME":"SL-14 R/B","OBJECT_ID":"1984-027B","EPOCH":"2026-03-13T22:26:57.981120","MEAN_MOTION":14.85981509,"ECCENTRICITY":0.00170227,"INCLINATION":82.5392,"RA_OF_ASC_NODE":241.0296,"ARG_OF_PERICENTER":323.2528,"MEAN_ANOMALY":36.752,"EPHEMERIS_TYPE":0,"CLASSIFICATION_TYPE":"U","NORAD_CAT_ID":14820,"ELEMENT_SET_NO":999,"REV_AT_EPOCH":24826,"BSTAR":6.6583319e-5,"MEAN_MOTION_DOT":6.07e-6,"MEAN_MOTION_DDOT":0},{"OBJECT_NAME":"SL-8 R/B","OBJECT_ID":"1985-006B","EPOCH":"2026-03-13T23:35:55.106016","MEAN_MOTION":14.37786524,"ECCENTRICITY":0.00182666,"INCLINATION":74.0432,"RA_OF_ASC_NODE":253.2469,"ARG_OF_PERICENTER":169.9686,"MEAN_ANOMALY":310.0381,"EPHEMERIS_TYPE":0,"CLASSIFICATION_TYPE":"U","NORAD_CAT_ID":15483,"ELEMENT_SET_NO":999,"REV_AT_EPOCH":15464,"BSTAR":0.00013621748,"MEAN_MOTION_DOT":3.85e-6,"MEAN_MOTION_DDOT":0},{"OBJECT_NAME":"SL-12 R/B(2)","OBJECT_ID":"1985-042D","EPOCH":"2026-03-13T10:37:05.989152","MEAN_MOTION":14.21983557,"ECCENTRICITY":0.00330851,"INCLINATION":71.1063,"RA_OF_ASC_NODE":79.7994,"ARG_OF_PERICENTER":121.9535,"MEAN_ANOMALY":41.1642,"EPHEMERIS_TYPE":0,"CLASSIFICATION_TYPE":"U","NORAD_CAT_ID":15772,"ELEMENT_SET_NO":999,"REV_AT_EPOCH":11492,"BSTAR":0.00010268085,"MEAN_MOTION_DOT":1.81e-6,"MEAN_MOTION_DDOT":0},{"OBJECT_NAME":"SL-14 R/B","OBJECT_ID":"1985-069B","EPOCH":"2026-03-13T22:03:12.070080","MEAN_MOTION":14.86438606,"ECCENTRICITY":0.00188543,"INCLINATION":82.5292,"RA_OF_ASC_NODE":20.9568,"ARG_OF_PERICENTER":173.5972,"MEAN_ANOMALY":186.5489,"EPHEMERIS_TYPE":0,"CLASSIFICATION_TYPE":"U","NORAD_CAT_ID":15945,"ELEMENT_SET_NO":999,"REV_AT_EPOCH":17346,"BSTAR":6.6932996e-5,"MEAN_MOTION_DOT":6.17e-6,"MEAN_MOTION_DDOT":0},{"OBJECT_NAME":"SL-16 R/B","OBJECT_ID":"1985-097B","EPOCH":"2026-03-13T21:24:45.178848","MEAN_MOTION":14.16598144,"ECCENTRICITY":0.0009793,"INCLINATION":71.0019,"RA_OF_ASC_NODE":131.7073,"ARG_OF_PERICENTER":254.5746,"MEAN_ANOMALY":278.096,"EPHEMERIS_TYPE":0,"CLASSIFICATION_TYPE":"U","NORAD_CAT_ID":16182,"ELEMENT_SET_NO":999,"REV_AT_EPOCH":8782,"BSTAR":-2.99976e-6,"MEAN_MOTION_DOT":-5.4e-7,"MEAN_MOTION_DDOT":0}]
