SL-8 R/B                
1 11574U 79089B   26072.42155193  .00000314  00000+0  10293-3 0  9993
2 11574  74.0667  84.1345 0017114 256.4414 103.4836 14.42353288436643
SL-14 R/B               
1 11672U 80005B   26072.88872850  .00000615  00000+0  59599-4 0  9995
2 11672  82.5137 303.2531 0016522 144.8431 215.3882 14.90935557477110
SL-8 R/B                
1 12139U 81003B   26072.97413022  .00022366  00000+0  57125-3 0  9994
2 12139  82.9384 286.0622 0261737 163.7107 197.2747 15.11151671315329
SL-3 R/B                
1 12465U 81046B   26072.93736437  .00014207  00000+0  32908-3 0  9994
2 12465  81.2296 284.6429 0019212   7.6746 352.4787 15.42110535439085
SL-3 R/B                
1 12904U 81103B   26072.91575085  .00007174  00000+0  31778-3 0  9993
2 12904  81.1588 208.4744 0012358 271.5104  88.4712 15.21433923973874
SL-3 R/B                
1 13068U 82013B   26072.92206973  .00004811  00000+0  20776-3 0  9995
2 13068  81.1758 155.8105 0022855 163.1775 197.0221 15.22060968404994
SL-3 R/B                
1 13154U 82039B   26072.89752908  .00003138  00000+0  18930-3 0  9999
2 13154  81.1576 211.1107 0029540 310.7122  49.1537 15.10108606382272
SL-3 R/B                
1 13403U 82079B   26072.93228460  .00008164  00000+0  32446-3 0  9998
2 13403  81.1479 188.0680 0025237 150.5542 209.7119 15.24867789378346
SL-14 R/B               
1 13553U 82092B   26072.63313476  .00000528  00000+0  56604-4 0  9997
2 13553  82.5689 137.7115 0018839 289.4979 230.7637 14.86670719329516
SL-3 R/B                
1 13819U 83010B   26072.25508695  .00017425  00000+0  34825-3 0  9994
2 13819  81.1059 357.8766 0017762  39.4433 320.8101 15.46493922358498
SL-3 R/B                
1 14208U 83075B   26072.97984715  .00012162  00000+0  31974-3 0  9993
2 14208  97.6143  77.7198 0020533 209.6151 150.3932 15.38528561330815
COSMOS 1536             
1 14699U 84013A   26072.79115265  .00007116  00000+0  29297-3 0  9994
2 14699  82.5428 103.7728 0012467 267.2106  92.7704 15.23883436273242
SL-14 R/B               
1 14820U 84027B   26072.93539330  .00000607  00000+0  66583-4 0  9992
2 14820  82.5392 241.0296 0017022 323.2528  36.7520 14.85981509248262
SL-8 R/B                
1 15483U 85006B   26072.98327669  .00000385  00000+0  13622-3 0  9999
2 15483  74.0432 253.2469 0018266 169.9686 310.0381 14.37786524154645
SL-12 R/B(2)            
1 15772U 85042D   26072.44243043  .00000181  00000+0  10268-3 0  9991
2 15772  71.1063  79.7994 0033085 121.9535  41.1642 14.21983557114922
SL-14 R/B               
1 15945U 85069B   26072.91888970  .00000617  00000+0  66933-4 0  9993
2 15945  82.5292  20.9568 0018854 173.5972 186.5489 14.86438606173462
SL-16 R/B               
1 16182U 85097B   26072.89218957 -.00000054  00000+0 -29998-5 0  9995
2 16182  71.0019 131.7073 0009793 254.5746 278.0960 14.16598144 87821
